{
  "type": "FeatureCollection",
  "features": [
    {
      "type": "Feature",
      "properties": {
        "norad_id": 29740,
        "name": "FENGYUN 1C DEB",
        "group": "fengyun-1c-debris",
        "lat": 27.353220756929385,
        "lon": -168.95789727569692,
        "alt_km": 2424.325817211221,
        "timestamp": "2025-12-09T04:51:47.764252+00:00",
        "meta_object_name": "FENGYUN 1C DEB",
        "meta_object_id": "1999-025AE",
        "meta_epoch": "2025-12-08T12:46:51.400704",
        "meta_mean_motion": 12.08324843,
        "meta_eccentricity": 0.09753401,
        "meta_inclination": 99.0444,
        "meta_ra_of_asc_node": 195.2891,
        "meta_arg_of_pericenter": 207.1169,
        "meta_mean_anomaly": 147.5581,
        "meta_ephemeris_type": 0,
        "meta_classification_type": "U",
        "meta_norad_cat_id": 29740,
        "meta_element_set_no": 999,
        "meta_rev_at_epoch": 82884,
        "meta_bstar": 0.00060471115,
        "meta_mean_motion_dot": 2.06e-06,
        "meta_mean_motion_ddot": 0,
        "tle_line1": "1 29740U 99025AE  25342.53253936  .00000206  00000+0  60471-3 0  9997",
        "tle_line2": "2 29740  99.0444 195.2891 0975340 207.1169 147.5581 12.08324843828849"
      },
      "geometry": {
        "type": "Point",
        "coordinates": [
          -168.95789727569692,
          27.353220756929385
        ]
      }
    },
    {
      "type": "Feature",
      "properties": {
        "norad_id": 29741,
        "name": "FENGYUN 1C DEB",
        "group": "fengyun-1c-debris",
        "lat": -17.545285427784783,
        "lon": -138.53029971731985,
        "alt_km": 1575.9981616930118,
        "timestamp": "2025-12-09T04:51:47.764276+00:00",
        "meta_object_name": "FENGYUN 1C DEB",
        "meta_object_id": "1999-025AF",
        "meta_epoch": "2025-12-08T15:13:31.523232",
        "meta_mean_motion": 12.0091294,
        "meta_eccentricity": 0.1024021,
        "meta_inclination": 99.1749,
        "meta_ra_of_asc_node": 218.1342,
        "meta_arg_of_pericenter": 71.9668,
        "meta_mean_anomaly": 346.4771,
        "meta_ephemeris_type": 0,
        "meta_classification_type": "U",
        "meta_norad_cat_id": 29741,
        "meta_element_set_no": 999,
        "meta_rev_at_epoch": 52134,
        "meta_bstar": 0.0069453,
        "meta_mean_motion_dot": 2.696e-05,
        "meta_mean_motion_ddot": 0,
        "tle_line1": "1 29741U 99025AF  25342.63439263  .00002696  00000+0  69453-2 0  9991",
        "tle_line2": "2 29741  99.1749 218.1342 1024021  71.9668 346.4771 12.00912940521347"
      },
      "geometry": {
        "type": "Point",
        "coordinates": [
          -138.53029971731985,
          -17.545285427784783
        ]
      }
    },
    {
      "type": "Feature",
      "properties": {
        "norad_id": 29748,
        "name": "FENGYUN 1C DEB",
        "group": "fengyun-1c-debris",
        "lat": 61.93009906559482,
        "lon": -103.89417849743128,
        "alt_km": 1232.7814294565896,
        "timestamp": "2025-12-09T04:51:47.764289+00:00",
        "meta_object_name": "FENGYUN 1C DEB",
        "meta_object_id": "1999-025AN",
        "meta_epoch": "2025-12-08T18:28:11.177184",
        "meta_mean_motion": 11.89764026,
        "meta_eccentricity": 0.083978,
        "meta_inclination": 99.8026,
        "meta_ra_of_asc_node": 274.6986,
        "meta_arg_of_pericenter": 16.7533,
        "meta_mean_anomaly": 345.9549,
        "meta_ephemeris_type": 0,
        "meta_classification_type": "U",
        "meta_norad_cat_id": 29748,
        "meta_element_set_no": 999,
        "meta_rev_at_epoch": 78686,
        "meta_bstar": 0.18763,
        "meta_mean_motion_dot": 0.00036035,
        "meta_mean_motion_ddot": 0,
        "tle_line1": "1 29748U 99025AN  25342.76957381  .00036035  00000+0  18763+0 0  9997",
        "tle_line2": "2 29748  99.8026 274.6986 0839780  16.7533 345.9549 11.89764026786866"
      },
      "geometry": {
        "type": "Point",
        "coordinates": [
          -103.89417849743128,
          61.93009906559482
        ]
      }
    },
    {
      "type": "Feature",
      "properties": {
        "norad_id": 29750,
        "name": "FENGYUN 1C DEB",
        "group": "fengyun-1c-debris",
        "lat": -33.32614956797555,
        "lon": 18.23387623886607,
        "alt_km": 842.0528703477512,
        "timestamp": "2025-12-09T04:51:47.764300+00:00",
        "meta_object_name": "FENGYUN 1C DEB",
        "meta_object_id": "1999-025AQ",
        "meta_epoch": "2025-12-08T15:58:46.375392",
        "meta_mean_motion": 14.09639019,
        "meta_eccentricity": 0.0035169,
        "meta_inclination": 98.7549,
        "meta_ra_of_asc_node": 11.8964,
        "meta_arg_of_pericenter": 313.2367,
        "meta_mean_anomaly": 170.3012,
        "meta_ephemeris_type": 0,
        "meta_classification_type": "U",
        "meta_norad_cat_id": 29750,
        "meta_element_set_no": 999,
        "meta_rev_at_epoch": 97016,
        "meta_bstar": 0.00044548,
        "meta_mean_motion_dot": 7.42e-06,
        "meta_mean_motion_ddot": 0,
        "tle_line1": "1 29750U 99025AQ  25342.66581453  .00000742  00000+0  44548-3 0  9992",
        "tle_line2": "2 29750  98.7549  11.8964 0035169 313.2367 170.3012 14.09639019970164"
      },
      "geometry": {
        "type": "Point",
        "coordinates": [
          18.23387623886607,
          -33.32614956797555
        ]
      }
    },
    {
      "type": "Feature",
      "properties": {
        "norad_id": 29751,
        "name": "FENGYUN 1C DEB",
        "group": "fengyun-1c-debris",
        "lat": -72.11381057257944,
        "lon": 38.932588152110114,
        "alt_km": 866.8443544592765,
        "timestamp": "2025-12-09T04:51:47.764311+00:00",
        "meta_object_name": "FENGYUN 1C DEB",
        "meta_object_id": "1999-025AR",
        "meta_epoch": "2025-12-08T19:55:20.749728",
        "meta_mean_motion": 14.23625198,
        "meta_eccentricity": 0.008975,
        "meta_inclination": 98.5418,
        "meta_ra_of_asc_node": 10.8153,
        "meta_arg_of_pericenter": 150.5189,
        "meta_mean_anomaly": 26.3982,
        "meta_ephemeris_type": 0,
        "meta_classification_type": "U",
        "meta_norad_cat_id": 29751,
        "meta_element_set_no": 999,
        "meta_rev_at_epoch": 98017,
        "meta_bstar": 0.00030186,
        "meta_mean_motion_dot": 6.75e-06,
        "meta_mean_motion_ddot": 0,
        "tle_line1": "1 29751U 99025AR  25342.83010127  .00000675  00000+0  30186-3 0  9995",
        "tle_line2": "2 29751  98.5418  10.8153 0089750 150.5189  26.3982 14.23625198980173"
      },
      "geometry": {
        "type": "Point",
        "coordinates": [
          38.932588152110114,
          -72.11381057257944
        ]
      }
    },
    {
      "type": "Feature",
      "properties": {
        "norad_id": 29754,
        "name": "FENGYUN 1C DEB",
        "group": "fengyun-1c-debris",
        "lat": 62.813350586463926,
        "lon": -76.3370267729597,
        "alt_km": 839.9141794535844,
        "timestamp": "2025-12-09T04:51:47.764321+00:00",
        "meta_object_name": "FENGYUN 1C DEB",
        "meta_object_id": "1999-025AU",
        "meta_epoch": "2025-12-08T18:52:44.800032",
        "meta_mean_motion": 14.19126813,
        "meta_eccentricity": 0.0035757,
        "meta_inclination": 98.8843,
        "meta_ra_of_asc_node": 85.5165,
        "meta_arg_of_pericenter": 250.704,
        "meta_mean_anomaly": 261.2139,
        "meta_ephemeris_type": 0,
        "meta_classification_type": "U",
        "meta_norad_cat_id": 29754,
        "meta_element_set_no": 999,
        "meta_rev_at_epoch": 97298,
        "meta_bstar": 0.0017224,
        "meta_mean_motion_dot": 3.582e-05,
        "meta_mean_motion_ddot": 0,
        "tle_line1": "1 29754U 99025AU  25342.78662963  .00003582  00000+0  17224-2 0  9990",
        "tle_line2": "2 29754  98.8843  85.5165 0035757 250.7040 261.2139 14.19126813972989"
      },
      "geometry": {
        "type": "Point",
        "coordinates": [
          -76.3370267729597,
          62.813350586463926
        ]
      }
    },
    {
      "type": "Feature",
      "properties": {
        "norad_id": 29758,
        "name": "FENGYUN 1C DEB",
        "group": "fengyun-1c-debris",
        "lat": 20.85153986298029,
        "lon": -77.80473018759999,
        "alt_km": 769.279823088209,
        "timestamp": "2025-12-09T04:51:47.764336+00:00",
        "meta_object_name": "FENGYUN 1C DEB",
        "meta_object_id": "1999-025AY",
        "meta_epoch": "2025-12-08T06:35:50.968608",
        "meta_mean_motion": 14.40875386,
        "meta_eccentricity": 0.00207018,
        "meta_inclination": 98.8561,
        "meta_ra_of_asc_node": 97.8304,
        "meta_arg_of_pericenter": 321.2544,
        "meta_mean_anomaly": 67.9953,
        "meta_ephemeris_type": 0,
        "meta_classification_type": "U",
        "meta_norad_cat_id": 29758,
        "meta_element_set_no": 999,
        "meta_rev_at_epoch": 97607,
        "meta_bstar": 0.0032276107,
        "meta_mean_motion_dot": 0.00010342,
        "meta_mean_motion_ddot": 0,
        "tle_line1": "1 29758U 99025AY  25342.27489547  .00010342  00000+0  32276-2 0  9999",
        "tle_line2": "2 29758  98.8561  97.8304 0020701 321.2544  67.9953 14.40875386976076"
      },
      "geometry": {
        "type": "Point",
        "coordinates": [
          -77.80473018759999,
          20.85153986298029
        ]
      }
    }
  ]
}